GEOSCAN 3 (RS92S3)      
1 64893U 25155T   26195.94772503  .00010632  00000+0  30230-3 0  9990
2 64893  97.4549 166.1692 0008611  87.9425 272.2805 15.36303293 85118
INNOSAT 3 (RS92S0)      
1 64894U 25155U   26195.90629486  .00024383  00000+0  50363-3 0  9995
2 64894  97.4493 168.1092 0008282  91.2410 268.9788 15.45802252 85244
KNACKSAT-2              
1 67683U 98067XZ  26195.36323014  .00036699  00000+0  41017-3 0  9993
2 67683  51.6267 157.5314 0008024 324.9954  35.0511 15.62347754 24527
