OBJECT_NAME,OBJECT_ID,EPOCH,MEAN_MOTION,ECCENTRICITY,INCLINATION,RA_OF_ASC_NODE,ARG_OF_PERICENTER,MEAN_ANOMALY,EPHEMERIS_TYPE,CLASSIFICATION_TYPE,NORAD_CAT_ID,ELEMENT_SET_NO,REV_AT_EPOCH,BSTAR,MEAN_MOTION_DOT,MEAN_MOTION_DDOT
GEOSCAN 3 (RS92S3),2025-155T,2026-07-14T22:44:43.442592,15.36303293,.00086117,97.4549,166.1692,87.9425,272.2805,0,U,64893,999,8511,.30229643E-3,.10632E-3,0
INNOSAT 3 (RS92S0),2025-155U,2026-07-14T21:45:03.875904,15.45802252,.00082821,97.4493,168.1092,91.2410,268.9788,0,U,64894,999,8524,.50363408E-3,.24383E-3,0
KNACKSAT-2,1998-067XZ,2026-07-14T08:43:03.084096,15.62347754,.00080246,51.6267,157.5314,324.9954,35.0511,0,U,67683,999,2452,.41016626E-3,.36699E-3,0
